KUIPER-00044            
1 64505U 25134F   25227.91668981 -.01448519  00000+0 -12212+0 0  9991
2 64505  51.8860  77.6621 0012421 309.3256 166.5895 15.01113903  4735
KUIPER-00046            
1 64506U 25134G   25227.91668981 -.01893274  00000+0 -11222+0 0  9994
2 64506  51.8779  75.9793 0010058 318.0798 270.1608 15.14346738  5663
KUIPER-00047            
1 64507U 25134H   25227.86623119  .00025788  00000+0  76147-3 0  9998
2 64507  51.8618  73.8818 0010439 316.7634  43.2531 15.34748020  9444
KUIPER-00048            
1 64508U 25134J   25227.86188343  .00034775  00000+0  95691-3 0  9995
2 64508  51.8760  73.1853 0003588 294.5100  65.5512 15.36843561  9458
KUIPER-00049            
1 64509U 25134K   25227.56781059  .00027408  00000+0  77920-3 0  9996
2 64509  51.8700  74.9340 0006423 300.2800  59.7549 15.35936796  9385
KUIPER-00050            
1 64510U 25134L   25227.90230474  .00036769  00000+0  10529-2 0  9997
2 64510  51.8714  73.4285 0007498 292.5885  67.4307 15.35553626  9456
KUIPER-00051            
1 64511U 25134M   25227.56249376  .00031314  00000+0  90989-3 0  9991
2 64511  51.8739  74.9110 0004388 299.5506  60.5042 15.35190862  9324
KUIPER-00052            
1 64512U 25134N   25227.93255951  .00066141  00000+0  98003-3 0  9990
2 64512  51.8760  70.6972 0005091 324.9706  35.0953 15.54623282  9499
